{
  "norad_id": 68505,
  "name": "TRANSPORTER-16 OBJECT CT",
  "history": [
    {
      "epoch": "2026-04-13T22:23:59.236800Z",
      "apogee_km": 598.6000430647373,
      "perigee_km": 593.3925971972612,
      "latitude_deg": 3.311854219780612e-05,
      "longitude_deg": -114.93551981175713,
      "height_km": 599.6846018151787,
      "semi_major_axis_km": 6974.133320130999,
      "eccentricity": 0.00037334,
      "inclination_deg": 97.7555,
      "raan_deg": 63.1783,
      "arg_perigee_deg": 255.6922,
      "mean_anomaly_deg": 104.3882,
      "mean_motion_rev_day": 14.90621545
    }
  ]
}