TRANSPORTER-16 OBJECT CT
1 68505U 26067CT  26103.93332450  .00002476  00000+0  25848-3 0  9994
2 68505  97.7555  63.1783 0003733 255.6922 104.3882 14.90621545  2149
